{"type": "FeatureCollection", "features": [ {"type": "Feature", "properties": {"norad_id": 54234, "name": "NOAA 21 (JPSS-2)", "group": "weather", "lat": -80.89089128743488, "lon": 21.08355372808773, "alt_km": 835.8092479923862, "timestamp": "2025-12-04T09:47:37.166248+00:00", "meta": {"OBJECT_NAME": "NOAA 21 (JPSS-2)", "OBJECT_ID": "2022-150A", "EPOCH": "2025-12-04T01:46:14.916000", "MEAN_MOTION": 14.19520426, "ECCENTRICITY": 0.0002524, "INCLINATION": 98.7449, "RA_OF_ASC_NODE": 274.4907, "ARG_OF_PERICENTER": 54.3468, "MEAN_ANOMALY": 305.7943, "EPHEMERIS_TYPE": 0, "CLASSIFICATION_TYPE": "U", "NORAD_CAT_ID": 54234, "ELEMENT_SET_NO": 999, "REV_AT_EPOCH": 15886, "BSTAR": 0.00011835, "MEAN_MOTION_DOT": 2.06e-06, "MEAN_MOTION_DDOT": 0}, "tle": {"line1": "1 54234U 22150A   25338.07378375  .00000206  00000+0  11835-3 0  9997", "line2": "2 54234  98.7449 274.4907 0002524  54.3468 305.7943 14.19520426158860"}}, "geometry": {"type": "Point", "coordinates": [21.08355372808773, -80.89089128743488]}}, {"type": "Feature", "properties": {"norad_id": 54743, "name": "METEOSAT-12 (MTG-I1)", "group": "weather", "lat": -0.15014169258863205, "lon": -139.9229645176659, "alt_km": 35779.758677707556, "timestamp": "2025-12-04T09:47:37.166263+00:00", "meta": {"OBJECT_NAME": "METEOSAT-12 (MTG-I1)", "OBJECT_ID": "2022-170C", "EPOCH": "2025-12-03T18:42:38.603808", "MEAN_MOTION": 1.00273728, "ECCENTRICITY": 0.00015205, "INCLINATION": 0.7181, "RA_OF_ASC_NODE": 30.0784, "ARG_OF_PERICENTER": 216.336, "MEAN_ANOMALY": 106.8238, "EPHEMERIS_TYPE": 0, "CLASSIFICATION_TYPE": "U", "NORAD_CAT_ID": 54743, "ELEMENT_SET_NO": 999, "REV_AT_EPOCH": 1101, "BSTAR": 0, "MEAN_MOTION_DOT": 1e-07, "MEAN_MOTION_DDOT": 0}, "tle": {"line1": "1 54743U 22170C   25337.77961347  .00000010  00000+0  00000+0 0  9998", "line2": "2 54743   0.7181  30.0784 0001520 216.3360 106.8238  1.00273728 11014"}}, "geometry": {"type": "Point", "coordinates": [-139.9229645176659, -0.15014169258863205]}}, {"type": "Feature", "properties": {"norad_id": 55973, "name": "TIANMU-1 03", "group": "weather", "lat": 16.242254852162485, "lon": -36.968261103710965, "alt_km": 444.63672308707555, "timestamp": "2025-12-04T09:47:37.166276+00:00", "meta": {"OBJECT_NAME": "TIANMU-1 03", "OBJECT_ID": "2023-039A", "EPOCH": "2025-12-03T23:43:59.530080", "MEAN_MOTION": 15.40526436, "ECCENTRICITY": 0.000457, "INCLINATION": 97.5102, "RA_OF_ASC_NODE": 140.3986, "ARG_OF_PERICENTER": 86.4276, "MEAN_ANOMALY": 273.7493, "EPHEMERIS_TYPE": 0, "CLASSIFICATION_TYPE": "U", "NORAD_CAT_ID": 55973, "ELEMENT_SET_NO": 999, "REV_AT_EPOCH": 15071, "BSTAR": 0.00069336731, "MEAN_MOTION_DOT": 0.00028137, "MEAN_MOTION_DDOT": 0}, "tle": {"line1": "1 55973U 23039A   25337.98888345  .00028137  00000+0  69337-3 0  9990", "line2": "2 55973  97.5102 140.3986 0004570  86.4276 273.7493 15.40526436150710"}}, "geometry": {"type": "Point", "coordinates": [-36.968261103710965, 16.242254852162485]}}, {"type": "Feature", "properties": {"norad_id": 55974, "name": "TIANMU-1 04", "group": "weather", "lat": -82.06327684892558, "lon": -110.9625455972709, "alt_km": 454.42666035649836, "timestamp": "2025-12-04T09:47:37.166287+00:00", "meta": {"OBJECT_NAME": "TIANMU-1 04", "OBJECT_ID": "2023-039B", "EPOCH": "2025-12-03T23:17:06.850752", "MEAN_MOTION": 15.40856229, "ECCENTRICITY": 0.00052326, "INCLINATION": 97.5035, "RA_OF_ASC_NODE": 139.574, "ARG_OF_PERICENTER": 82.8709, "MEAN_ANOMALY": 277.3132, "EPHEMERIS_TYPE": 0, "CLASSIFICATION_TYPE": "U", "NORAD_CAT_ID": 55974, "ELEMENT_SET_NO": 999, "REV_AT_EPOCH": 15071, "BSTAR": 0.0006823798, "MEAN_MOTION_DOT": 0.00027995, "MEAN_MOTION_DDOT": 0}, "tle": {"line1": "1 55974U 23039B   25337.97021818  .00027995  00000+0  68238-3 0  9994", "line2": "2 55974  97.5035 139.5740 0005232  82.8709 277.3132 15.40856229150717"}}, "geometry": {"type": "Point", "coordinates": [-110.9625455972709, -82.06327684892558]}}, {"type": "Feature", "properties": {"norad_id": 55975, "name": "TIANMU-1 05", "group": "weather", "lat": -48.971625361129895, "lon": 149.23322746445936, "alt_km": 454.13161156359456, "timestamp": "2025-12-04T09:47:37.166298+00:00", "meta": {"OBJECT_NAME": "TIANMU-1 05", "OBJECT_ID": "2023-039C", "EPOCH": "2025-12-03T23:05:44.919744", "MEAN_MOTION": 15.40483205, "ECCENTRICITY": 0.00043349, "INCLINATION": 97.508, "RA_OF_ASC_NODE": 140.0578, "ARG_OF_PERICENTER": 103.3303, "MEAN_ANOMALY": 256.8427, "EPHEMERIS_TYPE": 0, "CLASSIFICATION_TYPE": "U", "NORAD_CAT_ID": 55975, "ELEMENT_SET_NO": 999, "REV_AT_EPOCH": 15069, "BSTAR": 0.00066307823, "MEAN_MOTION_DOT": 0.0002686, "MEAN_MOTION_DDOT": 0}, "tle": {"line1": "1 55975U 23039C   25337.96232546  .00026860  00000+0  66308-3 0  9992", "line2": "2 55975  97.5080 140.0578 0004334 103.3303 256.8427 15.40483205150691"}}, "geometry": {"type": "Point", "coordinates": [149.23322746445936, -48.971625361129895]}}, {"type": "Feature", "properties": {"norad_id": 55976, "name": "TIANMU-1 06", "group": "weather", "lat": -72.22912033803564, "lon": -63.32978369233508, "alt_km": 453.6077702141156, "timestamp": "2025-12-04T09:47:37.166308+00:00", "meta": {"OBJECT_NAME": "TIANMU-1 06", "OBJECT_ID": "2023-039D", "EPOCH": "2025-12-03T23:20:40.507584", "MEAN_MOTION": 15.40909131, "ECCENTRICITY": 0.00046871, "INCLINATION": 97.5092, "RA_OF_ASC_NODE": 140.5263, "ARG_OF_PERICENTER": 98.8538, "MEAN_ANOMALY": 261.3239, "EPHEMERIS_TYPE": 0, "CLASSIFICATION_TYPE": "U", "NORAD_CAT_ID": 55976, "ELEMENT_SET_NO": 999, "REV_AT_EPOCH": 15071, "BSTAR": 0.00067690923, "MEAN_MOTION_DOT": 0.00027816, "MEAN_MOTION_DDOT": 0}, "tle": {"line1": "1 55976U 23039D   25337.97269106  .00027816  00000+0  67691-3 0  9994", "line2": "2 55976  97.5092 140.5263 0004687  98.8538 261.3239 15.40909131150716"}}, "geometry": {"type": "Point", "coordinates": [-63.32978369233508, -72.22912033803564]}}, {"type": "Feature", "properties": {"norad_id": 56232, "name": "FENGYUN 3G", "group": "weather", "lat": -49.46440555488401, "lon": 169.57103792222858, "alt_km": 418.35467892674933, "timestamp": "2025-12-04T09:47:37.166318+00:00", "meta": {"OBJECT_NAME": "FENGYUN 3G", "OBJECT_ID": "2023-055A", "EPOCH": "2025-12-03T23:24:01.752192", "MEAN_MOTION": 15.52834641, "ECCENTRICITY": 0.00092367, "INCLINATION": 49.9947, "RA_OF_ASC_NODE": 272.6575, "ARG_OF_PERICENTER": 106.4167, "MEAN_ANOMALY": 253.7816, "EPHEMERIS_TYPE": 0, "CLASSIFICATION_TYPE": "U", "NORAD_CAT_ID": 56232, "ELEMENT_SET_NO": 999, "REV_AT_EPOCH": 14966, "BSTAR": 0.00080679572, "MEAN_MOTION_DOT": 0.0005097, "MEAN_MOTION_DDOT": 0}, "tle": {"line1": "1 56232U 23055A   25337.97502028  .00050970  00000+0  80680-3 0  9991", "line2": "2 56232  49.9947 272.6575 0009236 106.4167 253.7816 15.52834641149668"}}, "geometry": {"type": "Point", "coordinates": [169.57103792222858, -49.46440555488401]}}, {"type": "Feature", "properties": {"norad_id": 57166, "name": "METEOR-M2 3", "group": "weather", "lat": 38.62927392255655, "lon": 25.11429140992342, "alt_km": 805.7189398103937, "timestamp": "2025-12-04T09:47:37.166331+00:00", "meta": {"OBJECT_NAME": "METEOR-M2 3", "OBJECT_ID": "2023-091A", "EPOCH": "2025-12-03T23:29:33.453024", "MEAN_MOTION": 14.2402447, "ECCENTRICITY": 0.00043764, "INCLINATION": 98.639, "RA_OF_ASC_NODE": 31.6707, "ARG_OF_PERICENTER": 32.3922, "MEAN_ANOMALY": 327.7525, "EPHEMERIS_TYPE": 0, "CLASSIFICATION_TYPE": "U", "NORAD_CAT_ID": 57166, "ELEMENT_SET_NO": 999, "REV_AT_EPOCH": 12673, "BSTAR": 4.9999351e-05, "MEAN_MOTION_DOT": 7.1e-07, "MEAN_MOTION_DDOT": 0}, "tle": {"line1": "1 57166U 23091A   25337.97885941  .00000071  00000+0  49999-4 0  9992", "line2": "2 57166  98.6390  31.6707 0004376  32.3922 327.7525 14.24024470126735"}}, "geometry": {"type": "Point", "coordinates": [25.11429140992342, 38.62927392255655]}}, {"type": "Feature", "properties": {"norad_id": 57399, "name": "TIANMU-1 07", "group": "weather", "lat": -6.515421185220128, "lon": 29.28069997725525, "alt_km": 487.2892197422707, "timestamp": "2025-12-04T09:47:37.166342+00:00", "meta": {"OBJECT_NAME": "TIANMU-1 07", "OBJECT_ID": "2023-101A", "EPOCH": "2025-12-03T22:49:10.475616", "MEAN_MOTION": 15.27868568, "ECCENTRICITY": 0.00056062, "INCLINATION": 97.2893, "RA_OF_ASC_NODE": 27.9959, "ARG_OF_PERICENTER": 103.8137, "MEAN_ANOMALY": 256.3727, "EPHEMERIS_TYPE": 0, "CLASSIFICATION_TYPE": "U", "NORAD_CAT_ID": 57399, "ELEMENT_SET_NO": 999, "REV_AT_EPOCH": 13181, "BSTAR": 0.00048334031, "MEAN_MOTION_DOT": 0.00013093, "MEAN_MOTION_DDOT": 0}, "tle": {"line1": "1 57399U 23101A   25337.95081569  .00013093  00000+0  48334-3 0  9993", "line2": "2 57399  97.2893  27.9959 0005606 103.8137 256.3727 15.27868568131816"}}, "geometry": {"type": "Point", "coordinates": [29.28069997725525, -6.515421185220128]}}, {"type": "Feature", "properties": {"norad_id": 57400, "name": "TIANMU-1 08", "group": "weather", "lat": 3.9325712647448032, "lon": -151.253246789489, "alt_km": 482.93152282122446, "timestamp": "2025-12-04T09:47:37.166354+00:00", "meta": {"OBJECT_NAME": "TIANMU-1 08", "OBJECT_ID": "2023-101B", "EPOCH": "2025-12-03T23:35:44.916864", "MEAN_MOTION": 15.27855608, "ECCENTRICITY": 0.00074842, "INCLINATION": 97.2881, "RA_OF_ASC_NODE": 27.8272, "ARG_OF_PERICENTER": 108.2888, "MEAN_ANOMALY": 251.9167, "EPHEMERIS_TYPE": 0, "CLASSIFICATION_TYPE": "U", "NORAD_CAT_ID": 57400, "ELEMENT_SET_NO": 999, "REV_AT_EPOCH": 13181, "BSTAR": 0.00051067548, "MEAN_MOTION_DOT": 0.00013838, "MEAN_MOTION_DDOT": 0}, "tle": {"line1": "1 57400U 23101B   25337.98315876  .00013838  00000+0  51068-3 0  9995", "line2": "2 57400  97.2881  27.8272 0007484 108.2888 251.9167 15.27855608131811"}}, "geometry": {"type": "Point", "coordinates": [-151.253246789489, 3.9325712647448032]}}]}